{
  "type": "FeatureCollection",
  "features": [
    {
      "type": "Feature",
      "properties": {
        "norad_id": 33986,
        "name": "COSMOS 2251 DEB",
        "group": "cosmos-2251-debris",
        "lat": -16.121348778273635,
        "lon": 131.90967723415346,
        "alt_km": 781.0974502999115,
        "timestamp": "2025-12-10T07:43:55.172503+00:00",
        "meta_object_name": "COSMOS 2251 DEB",
        "meta_object_id": "1993-036FV",
        "meta_epoch": "2025-12-08T23:28:28.723008",
        "meta_mean_motion": 14.43172512,
        "meta_eccentricity": 0.0040264,
        "meta_inclination": 74.037,
        "meta_ra_of_asc_node": 309.6592,
        "meta_arg_of_pericenter": 23.2183,
        "meta_mean_anomaly": 33.2913,
        "meta_ephemeris_type": 0,
        "meta_classification_type": "U",
        "meta_norad_cat_id": 33986,
        "meta_element_set_no": 999,
        "meta_rev_at_epoch": 87974,
        "meta_bstar": 0.0010835,
        "meta_mean_motion_dot": 3.652e-05,
        "meta_mean_motion_ddot": 0,
        "tle_line1": "1 33986U 93036FV  25342.97811022  .00003652  00000+0  10835-2 0  9990",
        "tle_line2": "2 33986  74.0370 309.6592 0040264  23.2183  33.2913 14.43172512879747"
      },
      "geometry": {
        "type": "Point",
        "coordinates": [
          131.90967723415346,
          -16.121348778273635
        ]
      }
    },
    {
      "type": "Feature",
      "properties": {
        "norad_id": 33990,
        "name": "COSMOS 2251 DEB",
        "group": "cosmos-2251-debris",
        "lat": -18.871728871515238,
        "lon": -75.77840682848358,
        "alt_km": 810.5076581349513,
        "timestamp": "2025-12-10T07:43:55.172514+00:00",
        "meta_object_name": "COSMOS 2251 DEB",
        "meta_object_id": "1993-036FZ",
        "meta_epoch": "2025-12-09T15:00:17.544384",
        "meta_mean_motion": 13.49978689,
        "meta_eccentricity": 0.0407575,
        "meta_inclination": 73.929,
        "meta_ra_of_asc_node": 290.9947,
        "meta_arg_of_pericenter": 311.8639,
        "meta_mean_anomaly": 240.3678,
        "meta_ephemeris_type": 0,
        "meta_classification_type": "U",
        "meta_norad_cat_id": 33990,
        "meta_element_set_no": 999,
        "meta_rev_at_epoch": 82687,
        "meta_bstar": 0.0024582,
        "meta_mean_motion_dot": 2.596e-05,
        "meta_mean_motion_ddot": 0,
        "tle_line1": "1 33990U 93036FZ  25343.62520306  .00002596  00000+0  24582-2 0  9990",
        "tle_line2": "2 33990  73.9290 290.9947 0407575 311.8639 240.3678 13.49978689826870"
      },
      "geometry": {
        "type": "Point",
        "coordinates": [
          -75.77840682848358,
          -18.871728871515238
        ]
      }
    },
    {
      "type": "Feature",
      "properties": {
        "norad_id": 33992,
        "name": "COSMOS 2251 DEB",
        "group": "cosmos-2251-debris",
        "lat": -31.200587792323642,
        "lon": 172.3912374375205,
        "alt_km": 692.098096253284,
        "timestamp": "2025-12-10T07:43:55.172524+00:00",
        "meta_object_name": "COSMOS 2251 DEB",
        "meta_object_id": "1993-036GB",
        "meta_epoch": "2025-12-09T18:28:40.852992",
        "meta_mean_motion": 14.66175983,
        "meta_eccentricity": 0.0051626,
        "meta_inclination": 74.0243,
        "meta_ra_of_asc_node": 343.4644,
        "meta_arg_of_pericenter": 102.2883,
        "meta_mean_anomaly": 75.961,
        "meta_ephemeris_type": 0,
        "meta_classification_type": "U",
        "meta_norad_cat_id": 33992,
        "meta_element_set_no": 999,
        "meta_rev_at_epoch": 89081,
        "meta_bstar": 0.0011688,
        "meta_mean_motion_dot": 6.533e-05,
        "meta_mean_motion_ddot": 0,
        "tle_line1": "1 33992U 93036GB  25343.76991728  .00006533  00000+0  11688-2 0  9995",
        "tle_line2": "2 33992  74.0243 343.4644 0051626 102.2883  75.9610 14.66175983890814"
      },
      "geometry": {
        "type": "Point",
        "coordinates": [
          172.3912374375205,
          -31.200587792323642
        ]
      }
    },
    {
      "type": "Feature",
      "properties": {
        "norad_id": 33994,
        "name": "COSMOS 2251 DEB",
        "group": "cosmos-2251-debris",
        "lat": -17.49759836051196,
        "lon": -170.2916805241554,
        "alt_km": 742.6616892849679,
        "timestamp": "2025-12-10T07:43:55.172534+00:00",
        "meta_object_name": "COSMOS 2251 DEB",
        "meta_object_id": "1993-036GD",
        "meta_epoch": "2025-12-09T20:12:21.741120",
        "meta_mean_motion": 14.41212242,
        "meta_eccentricity": 0.0023557,
        "meta_inclination": 74.042,
        "meta_ra_of_asc_node": 195.7722,
        "meta_arg_of_pericenter": 330.6024,
        "meta_mean_anomaly": 40.5348,
        "meta_ephemeris_type": 0,
        "meta_classification_type": "U",
        "meta_norad_cat_id": 33994,
        "meta_element_set_no": 999,
        "meta_rev_at_epoch": 88378,
        "meta_bstar": 0.00014797,
        "meta_mean_motion_dot": 4.53e-06,
        "meta_mean_motion_ddot": 0,
        "tle_line1": "1 33994U 93036GD  25343.84191830  .00000453  00000+0  14797-3 0  9992",
        "tle_line2": "2 33994  74.0420 195.7722 0023557 330.6024  40.5348 14.41212242883781"
      },
      "geometry": {
        "type": "Point",
        "coordinates": [
          -170.2916805241554,
          -17.49759836051196
        ]
      }
    },
    {
      "type": "Feature",
      "properties": {
        "norad_id": 33995,
        "name": "COSMOS 2251 DEB",
        "group": "cosmos-2251-debris",
        "lat": 61.69875033394744,
        "lon": -88.27803238908946,
        "alt_km": 730.391990490757,
        "timestamp": "2025-12-10T07:43:55.172544+00:00",
        "meta_object_name": "COSMOS 2251 DEB",
        "meta_object_id": "1993-036GE",
        "meta_epoch": "2025-12-09T11:07:25.075488",
        "meta_mean_motion": 14.34744652,
        "meta_eccentricity": 0.00603954,
        "meta_inclination": 74.0614,
        "meta_ra_of_asc_node": 125.3453,
        "meta_arg_of_pericenter": 140.6589,
        "meta_mean_anomaly": 219.8974,
        "meta_ephemeris_type": 0,
        "meta_classification_type": "U",
        "meta_norad_cat_id": 33995,
        "meta_element_set_no": 999,
        "meta_rev_at_epoch": 87472,
        "meta_bstar": 0.0016759618,
        "meta_mean_motion_dot": 4.825e-05,
        "meta_mean_motion_ddot": 0,
        "tle_line1": "1 33995U 93036GE  25343.46348467  .00004825  00000+0  16760-2 0  9999",
        "tle_line2": "2 33995  74.0614 125.3453 0060395 140.6589 219.8974 14.34744652874720"
      },
      "geometry": {
        "type": "Point",
        "coordinates": [
          -88.27803238908946,
          61.69875033394744
        ]
      }
    },
    {
      "type": "Feature",
      "properties": {
        "norad_id": 33999,
        "name": "COSMOS 2251 DEB",
        "group": "cosmos-2251-debris",
        "lat": -28.78296803429988,
        "lon": 64.71769114526003,
        "alt_km": 617.9332211874025,
        "timestamp": "2025-12-10T07:43:55.172554+00:00",
        "meta_object_name": "COSMOS 2251 DEB",
        "meta_object_id": "1993-036GJ",
        "meta_epoch": "2025-12-09T03:16:25.198464",
        "meta_mean_motion": 14.83233851,
        "meta_eccentricity": 0.00445867,
        "meta_inclination": 73.919,
        "meta_ra_of_asc_node": 237.9626,
        "meta_arg_of_pericenter": 134.6328,
        "meta_mean_anomaly": 225.85,
        "meta_ephemeris_type": 0,
        "meta_classification_type": "U",
        "meta_norad_cat_id": 33999,
        "meta_element_set_no": 999,
        "meta_rev_at_epoch": 89197,
        "meta_bstar": 0.0016195783,
        "meta_mean_motion_dot": 0.00013462,
        "meta_mean_motion_ddot": 0,
        "tle_line1": "1 33999U 93036GJ  25343.13640276  .00013462  00000+0  16196-2 0  9990",
        "tle_line2": "2 33999  73.9190 237.9626 0044586 134.6328 225.8500 14.83233851891977"
      },
      "geometry": {
        "type": "Point",
        "coordinates": [
          64.71769114526003,
          -28.78296803429988
        ]
      }
    },
    {
      "type": "Feature",
      "properties": {
        "norad_id": 34001,
        "name": "COSMOS 2251 DEB",
        "group": "cosmos-2251-debris",
        "lat": -63.29530822271069,
        "lon": 140.70882190162502,
        "alt_km": 781.8835185986936,
        "timestamp": "2025-12-10T07:43:55.172564+00:00",
        "meta_object_name": "COSMOS 2251 DEB",
        "meta_object_id": "1993-036GL",
        "meta_epoch": "2025-12-09T18:59:14.184960",
        "meta_mean_motion": 14.37092914,
        "meta_eccentricity": 0.0019839,
        "meta_inclination": 74.0385,
        "meta_ra_of_asc_node": 287.0088,
        "meta_arg_of_pericenter": 8.7018,
        "meta_mean_anomaly": 13.564,
        "meta_ephemeris_type": 0,
        "meta_classification_type": "U",
        "meta_norad_cat_id": 34001,
        "meta_element_set_no": 999,
        "meta_rev_at_epoch": 88104,
        "meta_bstar": 0.00037919,
        "meta_mean_motion_dot": 1.103e-05,
        "meta_mean_motion_ddot": 0,
        "tle_line1": "1 34001U 93036GL  25343.79113640  .00001103  00000+0  37919-3 0  9993",
        "tle_line2": "2 34001  74.0385 287.0088 0019839   8.7018  13.5640 14.37092914881044"
      },
      "geometry": {
        "type": "Point",
        "coordinates": [
          140.70882190162502,
          -63.29530822271069
        ]
      }
    }
  ]
}